{
  "norad_id": 56508,
  "name": "STARLINK-5335",
  "history": [
    {
      "epoch": "2026-03-28T18:32:45.421152",
      "apogee_km": 486.41391779965033,
      "perigee_km": 484.70993590407124,
      "latitude_deg": -42.43806961973034,
      "longitude_deg": -95.01619871985167,
      "semi_major_axis_km": 6863.698926851861,
      "eccentricity": 0.00012413,
      "inclination_deg": 43.0031,
      "raan_deg": 104.2482,
      "arg_perigee_deg": 266.5832,
      "mean_anomaly_deg": 93.4878,
      "mean_motion_rev_day": 15.26741196
    }
  ]
}