{"fetched_at":"2026-03-29T16:36:15Z","count":15609,"tles":[{"name":"STARLINK-5335","line1":"1 56508U 23065F   26087.77274793  .00000272  00000+0  19827-4 0  9990","line2":"2 56508  43.0031 104.2482 0001241 266.5832  93.4878 15.26741196159521","category":"Starlink"}]}